<?xml version="1.0" encoding="UTF-8"?>
<ndm xmlns:xsi="http://www.w3.org/2001/XMLSchema-instance" xsi:noNamespaceSchemaLocation="https://sanaregistry.org/r/ndmxml_unqualified/ndmxml-2.0.0-master-2.0.xsd">
<omm id="CCSDS_OMM_VERS" version="2.0">
<header><CREATION_DATE/><ORIGINATOR/></header><body><segment><metadata><OBJECT_NAME>QIANFAN-89</OBJECT_NAME><OBJECT_ID>2025-046S</OBJECT_ID><CENTER_NAME>EARTH</CENTER_NAME><REF_FRAME>TEME</REF_FRAME><TIME_SYSTEM>UTC</TIME_SYSTEM><MEAN_ELEMENT_THEORY>SGP4</MEAN_ELEMENT_THEORY></metadata><data><meanElements><EPOCH>2025-09-06T06:13:37.707744</EPOCH><MEAN_MOTION>13.50975683</MEAN_MOTION><ECCENTRICITY>.00176646</ECCENTRICITY><INCLINATION>88.9855</INCLINATION><RA_OF_ASC_NODE>330.1012</RA_OF_ASC_NODE><ARG_OF_PERICENTER>54.0455</ARG_OF_PERICENTER><MEAN_ANOMALY>306.2332</MEAN_ANOMALY></meanElements><tleParameters><EPHEMERIS_TYPE>0</EPHEMERIS_TYPE><CLASSIFICATION_TYPE>U</CLASSIFICATION_TYPE><NORAD_CAT_ID>63175</NORAD_CAT_ID><ELEMENT_SET_NO>999</ELEMENT_SET_NO><REV_AT_EPOCH>3424</REV_AT_EPOCH><BSTAR>.34388527E-3</BSTAR><MEAN_MOTION_DOT>.234E-5</MEAN_MOTION_DOT><MEAN_MOTION_DDOT>0</MEAN_MOTION_DDOT></tleParameters></data></segment></body></omm>
<omm id="CCSDS_OMM_VERS" version="2.0">
<header><CREATION_DATE/><ORIGINATOR/></header><body><segment><metadata><OBJECT_NAME>QIANFAN-90</OBJECT_NAME><OBJECT_ID>2025-046T</OBJECT_ID><CENTER_NAME>EARTH</CENTER_NAME><REF_FRAME>TEME</REF_FRAME><TIME_SYSTEM>UTC</TIME_SYSTEM><MEAN_ELEMENT_THEORY>SGP4</MEAN_ELEMENT_THEORY></metadata><data><meanElements><EPOCH>2025-09-06T06:55:07.061088</EPOCH><MEAN_MOTION>13.50974705</MEAN_MOTION><ECCENTRICITY>.00145682</ECCENTRICITY><INCLINATION>88.9856</INCLINATION><RA_OF_ASC_NODE>330.0705</RA_OF_ASC_NODE><ARG_OF_PERICENTER>53.6859</ARG_OF_PERICENTER><MEAN_ANOMALY>306.5635</MEAN_ANOMALY></meanElements><tleParameters><EPHEMERIS_TYPE>0</EPHEMERIS_TYPE><CLASSIFICATION_TYPE>U</CLASSIFICATION_TYPE><NORAD_CAT_ID>63176</NORAD_CAT_ID><ELEMENT_SET_NO>999</ELEMENT_SET_NO><REV_AT_EPOCH>3426</REV_AT_EPOCH><BSTAR>.27245321E-3</BSTAR><MEAN_MOTION_DOT>.188E-5</MEAN_MOTION_DOT><MEAN_MOTION_DDOT>0</MEAN_MOTION_DDOT></tleParameters></data></segment></body></omm>
</ndm>
