QIANFAN-89              
1 63175U 25046S   25249.25946421  .00000234  00000+0  34389-3 0  9992
2 63175  88.9855 330.1012 0017664  54.0455 306.2332 13.50975683 34243
QIANFAN-90              
1 63176U 25046T   25249.28827617  .00000188  00000+0  27245-3 0  9992
2 63176  88.9856 330.0705 0014568  53.6859 306.5635 13.50974705 34261
